NORAD_CAT_ID,OBJECT_NAME,OBJECT_TYPE,EPOCH,MEAN_MOTION,ECCENTRICITY,INCLINATION,RA_OF_ASC_NODE,ARG_OF_PERICENTER,MEAN_ANOMALY,BSTAR,MEAN_MOTION_DOT,MEAN_MOTION_DDOT,TLE_LINE0,TLE_LINE1,TLE_LINE2,SEMIMAJOR_AXIS,PERIOD,APOGEE,PERIGEE,DECAYED
54172.0,STARLINK-5117,PAYLOAD,2024-01-14 18:46:27,15.08835411,0.0001404,53.2162,287.6816,111.9248,248.1894,0.00018756,2.698e-05,0.0,0 STARLINK-5117,1 54172U 22141R   24014.78225786  .00002698  00000-0  18756-3 0  9990,2 54172  53.2162 287.6816 0001404 111.9248 248.1894 15.08835411 67367,6917.894,95.438,540.731,538.788,0.0
54172.0,STARLINK-5117,PAYLOAD,2024-01-14 21:57:13,15.08837116,0.0001461,53.2167,287.0883,113.9672,246.1474,0.00021263,3.097e-05,0.0,0 STARLINK-5117,1 54172U 22141R   24014.91473707  .00003097  00000-0  21263-3 0  9994,2 54172  53.2167 287.0883 0001461 113.9672 246.1474 15.08837116 67384,6917.889,95.438,540.765,538.744,0.0
54172.0,STARLINK-5117,PAYLOAD,2024-01-14 23:32:35,15.08844947,0.0001333,53.2166,286.7906,107.6652,252.4486,0.00025744,3.812e-05,0.0,0 STARLINK-5117,1 54172U 22141R   24014.98097163  .00003812  00000-0  25744-3 0  9992,2 54172  53.2166 286.7906 0001333 107.6652 252.4486 15.08844947 67395,6917.865,95.437,540.652,538.808,0.0
54172.0,STARLINK-5117,PAYLOAD,2024-01-15 13:51:04,15.08842469,0.0001218,53.2154,284.1162,95.6106,264.5025,0.00011721,1.578e-05,0.0,0 STARLINK-5117,1 54172U 22141R   24015.57713456  .00001578  00000-0  11721-3 0  9995,2 54172  53.2154 284.1162 0001218  95.6106 264.5025 15.08842469 67480,6917.873,95.437,540.58,538.895,0.0
54172.0,STARLINK-5117,PAYLOAD,2024-01-15 18:37:14,15.08829725,0.0001336,53.2153,283.2216,111.4498,248.6636,-0.00011942,-2.187e-05,0.0,0 STARLINK-5117,1 54172U 22141R   24015.77586008 -.00002187  00000-0 -11942-3 0  9992,2 54172  53.2153 283.2216 0001336 111.4498 248.6636 15.08829725 67516,6917.912,95.438,540.701,538.853,0.0
54172.0,STARLINK-5117,PAYLOAD,2024-01-15 20:12:37,15.08835758,0.0001979,53.2157,282.9221,151.563,208.547,6.0168e-06,-1.92e-06,0.0,0 STARLINK-5117,1 54172U 22141R   24015.84209513 -.00000192  00000-0  60168-5 0  9992,2 54172  53.2157 282.9221 0001979 151.5630 208.5470 15.08835758 67523,6917.893,95.438,541.127,538.389,0.0
54172.0,STARLINK-5117,PAYLOAD,2024-01-16 02:34:09,15.08840091,0.0001328,53.2151,281.7348,115.1621,244.9508,-8.0517e-07,-3.01e-06,0.0,0 STARLINK-5117,1 54172U 22141R   24016.10705436 -.00000301  00000-0 -80517-6 0  9991,2 54172  53.2151 281.7348 0001328 115.1621 244.9508 15.08840091 67564,6917.88,95.438,540.664,538.826,0.0
54172.0,STARLINK-5117,PAYLOAD,2024-01-16 12:06:28,15.08830908,0.0001269,53.2146,279.9513,108.0636,252.0495,-6.3727e-05,-1.302e-05,0.0,0 STARLINK-5117,1 54172U 22141R   24016.50449954 -.00001302  00000-0 -63727-4 0  9999,2 54172  53.2146 279.9513 0001269 108.0636 252.0495 15.08830908 67620,6917.908,95.438,540.651,538.895,0.0
54172.0,STARLINK-5117,PAYLOAD,2024-01-16 13:41:51,15.08831485,0.0001292,53.2146,279.654,105.8366,254.2768,-4.5185e-05,-1.007e-05,0.0,0 STARLINK-5117,1 54172U 22141R   24016.57074015 -.00001007  00000-0 -45185-4 0  9998,2 54172  53.2146 279.6540 0001292 105.8366 254.2768 15.08831485 67637,6917.906,95.438,540.665,538.878,0.0
54172.0,STARLINK-5117,PAYLOAD,2024-01-16 21:38:47,15.08839933,0.0001311,53.2146,278.1676,97.377,262.7372,0.00019991,2.895e-05,0.0,0 STARLINK-5117,1 54172U 22141R   24016.90194003  .00002895  00000-0  19991-3 0  9994,2 54172  53.2146 278.1676 0001311  97.3770 262.7372 15.08839933 67683,6917.881,95.438,540.653,538.839,0.0
54172.0,STARLINK-5117,PAYLOAD,2024-01-17 00:49:33,15.08844149,0.0001292,53.2146,277.5732,97.3941,262.7198,0.00033627,5.068e-05,0.0,0 STARLINK-5117,1 54172U 22141R   24017.03441946  .00005068  00000-0  33627-3 0  9997,2 54172  53.2146 277.5732 0001292  97.3941 262.7198 15.08844149 67701,6917.868,95.437,540.626,538.839,0.0
54172.0,STARLINK-5117,PAYLOAD,2024-01-17 11:57:16,15.08837483,0.0001418,53.2142,275.4925,93.0392,267.0762,0.00024363,3.591e-05,0.0,0 STARLINK-5117,1 54172U 22141R   24017.49810411  .00003591  00000-0  24363-3 0  9990,2 54172  53.2142 275.4925 0001418  93.0392 267.0762 15.08837483 67776,6917.888,95.438,540.734,538.772,0.0
54172.0,STARLINK-5117,PAYLOAD,2024-01-17 13:32:39,15.08834738,0.0001371,53.2146,275.1945,96.3573,263.7576,0.00023049,3.382e-05,0.0,0 STARLINK-5117,1 54172U 22141R   24017.56434551  .00003382  00000-0  23049-3 0  9993,2 54172  53.2146 275.1945 0001371  96.3573 263.7576 15.08834738 67781,6917.896,95.438,540.71,538.813,0.0
54172.0,STARLINK-5117,PAYLOAD,2024-01-17 21:29:35,15.08837634,0.0001358,53.2148,273.7072,95.4606,264.6541,0.0002446,3.607e-05,0.0,0 STARLINK-5117,1 54172U 22141R   24017.89554588  .00003607  00000-0  24460-3 0  9990,2 54172  53.2148 273.7072 0001358  95.4606 264.6541 15.08837634 67836,6917.888,95.438,540.692,538.813,0.0
54172.0,STARLINK-5117,PAYLOAD,2024-01-18 13:23:26,15.08841184,0.0001393,53.2149,270.7329,100.547,259.5679,0.00021385,3.117e-05,0.0,0 STARLINK-5117,1 54172U 22141R   24018.55794516  .00003117  00000-0  21385-3 0  9990,2 54172  53.2149 270.7329 0001393 100.5470 259.5679 15.08841184 67936,6917.877,95.437,540.705,538.778,0.0
54172.0,STARLINK-5117,PAYLOAD,2024-01-18 19:44:58,15.08845334,0.0001449,53.2148,269.5432,103.3103,256.805,0.00026511,3.934e-05,0.0,0 STARLINK-5117,1 54172U 22141R   24018.82290343  .00003934  00000-0  26511-3 0  9992,2 54172  53.2148 269.5432 0001449 103.3103 256.8050 15.08845334 67970,6917.864,95.437,540.731,538.727,0.0
54172.0,STARLINK-5117,PAYLOAD,2024-01-18 21:20:21,15.08847445,0.0001438,53.2148,269.2458,103.7133,256.402,0.00029901,4.475e-05,0.0,0 STARLINK-5117,1 54172U 22141R   24018.88914252  .00004475  00000-0  29901-3 0  9997,2 54172  53.2148 269.2458 0001438 103.7133 256.4020 15.08847445 67989,6917.858,95.437,540.717,538.728,0.0
54172.0,STARLINK-5117,PAYLOAD,2024-01-19 13:14:13,15.08838704,0.0001513,53.2143,266.2708,104.4105,255.7055,9.6339e-05,1.246e-05,0.0,0 STARLINK-5117,1 54172U 22141R   24019.55154394  .00001246  00000-0  96339-4 0  9998,2 54172  53.2143 266.2708 0001513 104.4105 255.7055 15.08838704 68080,6917.884,95.438,540.796,538.703,0.0
54172.0,STARLINK-5117,PAYLOAD,2024-01-19 19:35:45,15.08838812,0.0001387,53.216,265.0836,103.4352,256.6795,0.00010534,1.389e-05,0.0,0 STARLINK-5117,1 54172U 22141R   24019.81650302  .00001389  00000-0  10534-3 0  9997,2 54172  53.2160 265.0836 0001387 103.4352 256.6795 15.08838812 68126,6917.884,95.438,540.709,538.79,0.0
54172.0,STARLINK-5117,PAYLOAD,2024-01-19 22:46:31,15.08842756,0.0001341,53.2155,264.4881,96.1556,263.9589,0.0001203,1.627e-05,0.0,0 STARLINK-5117,1 54172U 22141R   24019.94898021  .00001627  00000-0  12030-3 0  9991,2 54172  53.2155 264.4881 0001341  96.1556 263.9589 15.08842756 68143,6917.872,95.437,540.665,538.809,0.0
54172.0,STARLINK-5117,PAYLOAD,2024-01-20 01:57:17,15.08847755,0.0001337,53.2155,263.8933,96.2786,263.8358,0.00013731,1.898e-05,0.0,0 STARLINK-5117,1 54172U 22141R   24020.08145638  .00001898  00000-0  13731-3 0  9996,2 54172  53.2155 263.8933 0001337  96.2786 263.8358 15.08847755 68164,6917.857,95.437,540.647,538.797,0.0
54172.0,STARLINK-5117,PAYLOAD,2024-01-20 11:29:37,15.08840694,0.0001358,53.215,262.1101,90.5012,269.6136,5.2217e-05,5.43e-06,0.0,0 STARLINK-5117,1 54172U 22141R   24020.47890303  .00000543  00000-0  52217-4 0  9994,2 54172  53.2150 262.1101 0001358  90.5012 269.6136 15.08840694 68220,6917.878,95.438,540.683,538.804,0.0
54172.0,STARLINK-5117,PAYLOAD,2024-01-20 14:40:23,15.08833343,0.0001515,53.2152,261.5141,109.7157,250.3999,1.8043e-05,-1e-08,0.0,0 STARLINK-5117,1 54172U 22141R   24020.61138770 -.00000001  00000-0  18043-4 0  9992,2 54172  53.2152 261.5141 0001515 109.7157 250.3999 15.08833343 68246,6917.901,95.438,540.814,538.718,0.0
54172.0,STARLINK-5117,PAYLOAD,2024-01-20 22:37:19,15.08836794,0.0001524,53.2152,260.0271,112.8932,247.2221,3.4355e-05,2.59e-06,0.0,0 STARLINK-5117,1 54172U 22141R   24020.94258495  .00000259  00000-0  34355-4 0  9993,2 54172  53.2152 260.0271 0001524 112.8932 247.2221 15.08836794 68291,6917.89,95.438,540.809,538.701,0.0
54172.0,STARLINK-5117,PAYLOAD,2024-01-21 12:55:47,15.08834762,0.0001279,53.2152,257.3511,99.2151,260.8986,4.1786e-05,3.77e-06,0.0,0 STARLINK-5117,1 54172U 22141R   24021.53874652  .00000377  00000-0  41786-4 0  9995,2 54172  53.2152 257.3511 0001279  99.2151 260.8986 15.08834762 68387,6917.896,95.438,540.646,538.877,0.0
54172.0,STARLINK-5117,PAYLOAD,2024-01-21 22:28:06,15.08838622,0.000127,53.2151,255.5672,93.7683,266.3454,7.1277e-05,8.47e-06,0.0,0 STARLINK-5117,1 54172U 22141R   24021.93618396  .00000847  00000-0  71277-4 0  9990,2 54172  53.2151 255.5672 0001270  93.7683 266.3454 15.08838622 68441,6917.885,95.438,540.628,538.871,0.0
54172.0,STARLINK-5117,PAYLOAD,2024-01-22 19:08:07,15.088263,0.000125,53.2151,251.7011,96.6789,263.4346,0.00019024,2.74e-05,0.0,0 STARLINK-5117,1 54172U 22141R   24022.79731199  .00002740  00000-0  19024-3 0  9997,2 54172  53.2151 251.7011 0001250  96.6789 263.4346 15.08826300 68575,6917.922,95.438,540.652,538.923,0.0
54172.0,STARLINK-5117,PAYLOAD,2024-01-22 22:18:53,15.08832991,0.0001286,53.215,251.1064,97.6552,262.4586,0.00012854,1.758e-05,0.0,0 STARLINK-5117,1 54172U 22141R   24022.92978936  .00001758  00000-0  12854-3 0  9996,2 54172  53.2150 251.1064 0001286  97.6552 262.4586 15.08832991 68594,6917.902,95.438,540.656,538.877,0.0
54172.0,STARLINK-5117,PAYLOAD,2024-01-23 15:48:08,15.08836983,0.0001285,53.215,247.835,97.4661,262.6477,0.00015889,2.242e-05,0.0,0 STARLINK-5117,1 54172U 22141R   24023.65842749  .00002242  00000-0  15889-3 0  9999,2 54172  53.2150 247.8350 0001285  97.4661 262.6477 15.08836983 68701,6917.89,95.438,540.644,538.866,0.0
54172.0,STARLINK-5117,PAYLOAD,2024-01-23 22:09:40,15.08841362,0.0001277,53.2151,246.6459,93.9727,266.1412,0.00015131,2.121e-05,0.0,0 STARLINK-5117,1 54172U 22141R   24023.92338459  .00002121  00000-0  15131-3 0  9993,2 54172  53.2151 246.6459 0001277  93.9727 266.1412 15.08841362 68743,6917.876,95.437,540.625,538.858,0.0
